OBJECT_NAME,OBJECT_ID,EPOCH,MEAN_MOTION,ECCENTRICITY,INCLINATION,RA_OF_ASC_NODE,ARG_OF_PERICENTER,MEAN_ANOMALY,EPHEMERIS_TYPE,CLASSIFICATION_TYPE,NORAD_CAT_ID,ELEMENT_SET_NO,REV_AT_EPOCH,BSTAR,MEAN_MOTION_DOT,MEAN_MOTION_DDOT
PERSEUS-M1,2014-033AF,2026-06-26T16:04:52.359744,14.95663200,.0009782,97.9648,121.9576,265.6339,94.3764,0,U,40039,999,65205,.17384E-3,.1874E-4,0
POLYITAN-1,2014-033AJ,2026-06-25T14:25:19.998624,15.33535945,.00088721,98.0941,203.6586,118.2869,241.9268,0,U,40042,999,65488,.73318562E-3,.23755E-3,0
TIGRISAT,2014-033AK,2026-06-26T16:23:18.157056,14.85194115,.0050124,97.7842,327.4774,44.7680,315.7563,0,U,40043,999,64703,.20385E-3,.1731E-4,0
AEROCUBE 6A,2014-033AM,2026-06-26T16:59:46.173120,14.98184070,.0038183,97.7228,344.5572,344.9116,15.0964,0,U,40045,999,64804,.38111E-3,.4528E-4,0
AEROCUBE 6B,2014-033AN,2026-06-26T16:49:46.462080,14.99648139,.003774,97.7227,344.3618,336.0186,23.9278,0,U,40046,999,64818,.37409E-3,.4617E-4,0
CANX-4,2014-034C,2026-06-26T14:36:50.692320,14.81280105,.0012436,98.3111,53.2673,347.1728,12.9165,0,U,40055,999,64592,.11506E-3,.841E-5,0
CANX-5,2014-034D,2026-06-26T14:34:25.834080,14.81297429,.0012441,98.3114,53.3098,347.3875,12.7023,0,U,40056,999,63673,.11591E-3,.848E-5,0
UKUBE-1,2014-037F,2026-06-26T11:44:49.450272,15.13689775,.0003036,98.4237,181.7392,117.7936,242.3600,0,U,40074,999,64996,.4936E-3,.8811E-4,0
BRITE-PL2 (HEWELIUSZ),2014-049B,2026-06-26T13:04:59.537856,14.94627428,.0015377,97.9106,289.6176,79.9676,280.3278,0,U,40119,999,64284,.16299E-3,.1709E-4,0
AEROCUBE 5C,2015-058B,2026-06-26T11:47:08.263104,14.91488513,.0131217,64.7664,233.6456,59.6399,301.7611,0,U,40965,999,36704,.19034E-3,.2073E-4,0
AEROCUBE 7,2015-058C,2026-06-26T12:39:49.262400,14.95774878,.012094,64.7607,215.5583,57.9886,303.2911,0,U,40966,999,36735,.2611E-3,.32E-4,0
FOX-1A (AO-85),2015-058D,2026-06-26T14:36:36.038016,14.91006682,.0131014,64.7749,249.7037,52.9293,308.3713,0,U,40967,999,11497,.19593E-3,.2109E-4,0
SINOD-D 1,2015-058E,2026-06-26T10:30:11.270880,14.95955298,.0119663,64.7739,229.9429,49.4285,311.7170,0,U,40968,999,11804,.26324E-3,.3234E-4,0
SNAP-3 ALICE,2015-058G,2026-06-26T17:14:43.863936,15.62472998,.0024959,64.7504,70.9325,5.8036,354.3395,0,U,40970,999,11837,.15521E-2,.143263E-2,0
LMRST-SAT,2015-058H,2026-06-26T15:12:19.050048,14.90623748,.0132611,64.7743,245.9828,54.9501,306.3966,0,U,40971,999,11496,.16664E-3,.1754E-4,0
SNAP-3 EDDIE,2015-058J,2026-06-25T23:56:14.239392,15.63466255,.00254786,64.7418,64.0911,9.7390,350.4246,0,U,40972,999,12040,.15256664E-2,.146581E-2,0
PROPCUBE 3,2015-058K,2026-06-26T12:17:23.652384,14.94300275,.0124548,64.7672,223.4003,56.2341,305.0563,0,U,40973,999,11619,.23025E-3,.2709E-4,0
BISONSAT,2015-058L,2026-06-26T06:24:16.862112,15.16410925,.0080135,64.7572,144.2838,43.5930,317.1488,0,U,40974,999,11699,.78594E-3,.16488E-3,0
SNAP-3 JIMI,2015-058M,2026-06-26T09:00:42.662592,15.02378366,.0106633,64.7632,190.6990,51.6805,309.3839,0,U,40975,999,11560,.42149E-3,.6148E-4,0
PROPCUBE 1 (FLORA),2015-058N,2026-06-26T15:56:36.030624,14.89258404,.0131268,64.7749,265.8631,57.2315,304.1365,0,U,40976,999,11767,.19095E-3,.1953E-4,0
SINOD-D 3,2015-058P,2026-06-26T11:28:46.691616,14.94063839,.0119787,64.7720,246.8052,54.4457,306.7753,0,U,40977,999,11614,.24358E-3,.2825E-4,0
HORYU-4,2016-012D,2026-06-26T14:25:56.670240,16.07657648,.0008771,30.9826,9.3933,328.5167,31.4973,0,U,41340,999,57232,.11416E-2,.981345E-2,.51298E-3
RAVAN,2016-067B,2026-06-26T16:41:44.918592,15.55594375,.0002642,97.9880,68.3716,358.8423,1.2823,0,U,41849,999,52917,.67249E-3,.4617E-3,0
CELTEE 1,2016-067C,2026-06-26T10:12:09.807264,15.19767021,.0001455,98.0667,44.6223,128.9648,231.1715,0,U,41850,999,52728,.27454E-3,.5797E-4,0
OPTICUBE 04,2016-067D,2026-06-26T11:47:05.590752,15.09695294,.0017023,98.0694,30.2600,86.7343,273.5832,0,U,41851,999,52657,.13858E-3,.2168E-4,0
AEROCUBE 8D,2016-067E,2026-06-26T03:33:15.782976,15.24514880,.00050223,98.0682,48.0013,102.1384,258.0415,0,U,41852,999,52743,.34050891E-3,.8298E-4,0
AEROCUBE 8C,2016-067F,2026-06-26T04:07:07.595616,15.24766784,.00060915,98.0549,45.2426,44.4349,315.7375,0,U,41853,999,52743,.36879668E-3,.9065E-4,0
CORVUS BC2,2017-042X,2026-06-26T16:39:35.551872,15.06352474,.0014697,97.4071,338.6750,81.2515,279.0376,0,U,42846,999,48849,.19434E-3,.2806E-4,0
CORVUS BC1,2017-042Y,2026-06-26T16:30:18.944928,15.06515348,.0013119,97.4096,339.4890,60.2631,299.9900,0,U,42847,999,48852,.19183E-3,.278E-4,0
MAKERSAT 0,2017-073D,2026-06-24T10:17:55.746816,15.32301022,.01048473,97.4622,58.0052,246.7219,112.2959,0,U,43016,999,46757,.42577588E-3,.15733E-3,0
